{
    "links": {
        "self": "http://www.neowsapp.com/rest/v1/neo/54054561?api_key=iIulBulltgU6a56xZRHN4H3l9WmuAYTsLGpBGhQ2"
    },
    "id": "54054561",
    "neo_reference_id": "54054561",
    "name": "(2020 RE10)",
    "designation": "2020 RE10",
    "nasa_jpl_url": "http://ssd.jpl.nasa.gov/sbdb.cgi?sstr=54054561",
    "absolute_magnitude_h": 25.847,
    "estimated_diameter": {
        "kilometers": {
            "estimated_diameter_min": 0.0179951295,
            "estimated_diameter_max": 0.0402383328
        },
        "meters": {
            "estimated_diameter_min": 17.9951295105,
            "estimated_diameter_max": 40.2383328494
        },
        "miles": {
            "estimated_diameter_min": 0.0111816516,
            "estimated_diameter_max": 0.0250029331
        },
        "feet": {
            "estimated_diameter_min": 59.0391407032,
            "estimated_diameter_max": 132.0155319456
        }
    },
    "is_potentially_hazardous_asteroid": false,
    "close_approach_data": [
        {
            "close_approach_date": "2020-09-09",
            "close_approach_date_full": "2020-Sep-09 21:31",
            "epoch_date_close_approach": 1599687060000,
            "relative_velocity": {
                "kilometers_per_second": "15.5640992714",
                "kilometers_per_hour": "56030.7573772171",
                "miles_per_hour": "34815.3336603047"
            },
            "miss_distance": {
                "astronomical": "0.0579226482",
                "lunar": "22.5319101498",
                "kilometers": "8665104.795479334",
                "miles": "5384246.4490854492"
            },
            "orbiting_body": "Earth"
        }
    ],
    "orbital_data": {
        "orbit_id": "1",
        "orbit_determination_date": "2020-09-21 08:12:10",
        "first_observation_date": "2020-09-10",
        "last_observation_date": "2020-09-11",
        "data_arc_in_days": 1,
        "observations_used": 11,
        "orbit_uncertainty": "8",
        "minimum_orbit_intersection": ".0562841",
        "jupiter_tisserand_invariant": "4.609",
        "epoch_osculation": "2459103.5",
        "eccentricity": ".2699736435148848",
        "semi_major_axis": "1.394522573362807",
        "inclination": "28.317346124628",
        "ascending_node_longitude": "345.4730535077982",
        "orbital_period": "601.5015486801477",
        "perihelion_distance": "1.018038233268297",
        "perihelion_argument": "37.85285409276519",
        "aphelion_distance": "1.771006913457317",
        "perihelion_time": "2459137.138325174748",
        "mean_anomaly": "339.8673883891382",
        "mean_motion": ".5985021996866583",
        "equinox": "J2000",
        "orbit_class": {
            "orbit_class_type": "AMO",
            "orbit_class_description": "Near-Earth asteroid orbits similar to that of 1221 Amor",
            "orbit_class_range": "1.017 AU < q (perihelion) < 1.3 AU"
        }
    },
    "is_sentry_object": false
}